NOAA 18                 
1 28654U 05018A   26089.20815638  .00000072  00000+0  60999-4 0  9992
2 28654  98.8129 170.0254 0014495  19.9593 340.2144 14.13714943 75155
NOAA 19                 
1 33591U 09005A   26089.19299545  .00000073  00000+0  62855-4 0  9993
2 33591  98.9569 159.9948 0012761 252.0749 107.9032 14.13460795883326
SUOMI NPP               
1 37849U 11061A   26089.18419039  .00000095  00000+0  65915-4 0  9993
2 37849  98.7896  30.6264 0001748 155.7779 204.3479 14.19498981747238
NOAA 20 (JPSS-1)        
1 43013U 17073A   26089.12809024  .00000079  00000+0  58267-4 0  9997
2 43013  98.7715  29.3149 0001922 110.4395 249.6987 14.19541329433256
