[{"OBJECT_NAME":"NOAA 18","OBJECT_ID":"2005-018A","EPOCH":"2026-03-30T04:59:44.711232","MEAN_MOTION":14.13714943,"ECCENTRICITY":0.0014495,"INCLINATION":98.8129,"RA_OF_ASC_NODE":170.0254,"ARG_OF_PERICENTER":19.9593,"MEAN_ANOMALY":340.2144,"EPHEMERIS_TYPE":0,"CLASSIFICATION_TYPE":"U","NORAD_CAT_ID":28654,"ELEMENT_SET_NO":999,"REV_AT_EPOCH":7515,"BSTAR":6.0999e-5,"MEAN_MOTION_DOT":7.2e-7,"MEAN_MOTION_DDOT":0},{"OBJECT_NAME":"NOAA 19","OBJECT_ID":"2009-005A","EPOCH":"2026-03-30T04:37:54.806880","MEAN_MOTION":14.13460795,"ECCENTRICITY":0.0012761,"INCLINATION":98.9569,"RA_OF_ASC_NODE":159.9948,"ARG_OF_PERICENTER":252.0749,"MEAN_ANOMALY":107.9032,"EPHEMERIS_TYPE":0,"CLASSIFICATION_TYPE":"U","NORAD_CAT_ID":33591,"ELEMENT_SET_NO":999,"REV_AT_EPOCH":88332,"BSTAR":6.2855e-5,"MEAN_MOTION_DOT":7.3e-7,"MEAN_MOTION_DDOT":0},{"OBJECT_NAME":"SUOMI NPP","OBJECT_ID":"2011-061A","EPOCH":"2026-03-30T04:25:14.049696","MEAN_MOTION":14.19498981,"ECCENTRICITY":0.0001748,"INCLINATION":98.7896,"RA_OF_ASC_NODE":30.6264,"ARG_OF_PERICENTER":155.7779,"MEAN_ANOMALY":204.3479,"EPHEMERIS_TYPE":0,"CLASSIFICATION_TYPE":"U","NORAD_CAT_ID":37849,"ELEMENT_SET_NO":999,"REV_AT_EPOCH":74723,"BSTAR":6.5915e-5,"MEAN_MOTION_DOT":9.5e-7,"MEAN_MOTION_DDOT":0},{"OBJECT_NAME":"NOAA 20 (JPSS-1)","OBJECT_ID":"2017-073A","EPOCH":"2026-03-30T03:04:26.996736","MEAN_MOTION":14.19541329,"ECCENTRICITY":0.0001922,"INCLINATION":98.7715,"RA_OF_ASC_NODE":29.3149,"ARG_OF_PERICENTER":110.4395,"MEAN_ANOMALY":249.6987,"EPHEMERIS_TYPE":0,"CLASSIFICATION_TYPE":"U","NORAD_CAT_ID":43013,"ELEMENT_SET_NO":999,"REV_AT_EPOCH":43325,"BSTAR":5.8267e-5,"MEAN_MOTION_DOT":7.9e-7,"MEAN_MOTION_DDOT":0}]
